[{"OBJECT_NAME":"STARLINK-2162","OBJECT_ID":"2021-017AC","EPOCH":"2026-03-10T00:00:02.999808","MEAN_MOTION":15.43772668,"ECCENTRICITY":0.00014572,"INCLINATION":53.1597,"RA_OF_ASC_NODE":191.6708,"ARG_OF_PERICENTER":88.7385,"MEAN_ANOMALY":324.0678,"EPHEMERIS_TYPE":0,"CLASSIFICATION_TYPE":"U","NORAD_CAT_ID":47748,"ELEMENT_SET_NO":999,"REV_AT_EPOCH":576,"BSTAR":0.023342841,"MEAN_MOTION_DOT":0.0117885,"MEAN_MOTION_DDOT":0},{"OBJECT_NAME":"SL-3 R\/B","OBJECT_ID":"1983-010B","EPOCH":"2026-03-09T21:22:10.613568","MEAN_MOTION":15.46365595,"ECCENTRICITY":0.00179542,"INCLINATION":81.106,"RA_OF_ASC_NODE":2.0014,"ARG_OF_PERICENTER":50.5381,"MEAN_ANOMALY":309.7449,"EPHEMERIS_TYPE":0,"CLASSIFICATION_TYPE":"U","NORAD_CAT_ID":13819,"ELEMENT_SET_NO":999,"REV_AT_EPOCH":35797,"BSTAR":0.00039060768,"MEAN_MOTION_DOT":0.00019461,"MEAN_MOTION_DDOT":0}]
